{"type": "FeatureCollection", "features": [ {"type": "Feature", "properties": {"norad_id": 67081, "name": "STARLINK-35864", "group": "last-30-days", "lat": 4.115534180939879, "lon": 33.14108013491203, "alt_km": 329.7031194167794, "timestamp": "2025-12-25T03:55:54.956893+00:00", "meta": {"OBJECT_NAME": "STARLINK-35864", "OBJECT_ID": "2025-298G", "EPOCH": "2025-12-24T20:00:01.000224", "MEAN_MOTION": 15.82277598, "ECCENTRICITY": 0.0003791, "INCLINATION": 69.9971, "RA_OF_ASC_NODE": 215.5881, "ARG_OF_PERICENTER": 272.3363, "MEAN_ANOMALY": 182.0289, "EPHEMERIS_TYPE": 0, "CLASSIFICATION_TYPE": "U", "NORAD_CAT_ID": 67081, "ELEMENT_SET_NO": 999, "REV_AT_EPOCH": 292, "BSTAR": -0.0095442, "MEAN_MOTION_DOT": -0.01711436, "MEAN_MOTION_DDOT": 0}, "tle": {"line1": "1 67081U 25298G   25358.83334491 -.01711436  00000+0 -95442-2 0  9996", "line2": "2 67081  69.9971 215.5881 0003791 272.3363 182.0289 15.82277598  2928"}}, "geometry": {"type": "Point", "coordinates": [33.14108013491203, 4.115534180939879]}}, {"type": "Feature", "properties": {"norad_id": 67082, "name": "STARLINK-36035", "group": "last-30-days", "lat": 2.17283041737657, "lon": 33.84887558354602, "alt_km": 330.0760375777145, "timestamp": "2025-12-25T03:55:54.956903+00:00", "meta": {"OBJECT_NAME": "STARLINK-36035", "OBJECT_ID": "2025-298H", "EPOCH": "2025-12-24T20:00:01.000224", "MEAN_MOTION": 15.82272305, "ECCENTRICITY": 0.0003743, "INCLINATION": 69.9973, "RA_OF_ASC_NODE": 215.5858, "ARG_OF_PERICENTER": 276.2441, "MEAN_ANOMALY": 180.1956, "EPHEMERIS_TYPE": 0, "CLASSIFICATION_TYPE": "U", "NORAD_CAT_ID": 67082, "ELEMENT_SET_NO": 999, "REV_AT_EPOCH": 292, "BSTAR": -0.0095676, "MEAN_MOTION_DOT": -0.01714629, "MEAN_MOTION_DDOT": 0}, "tle": {"line1": "1 67082U 25298H   25358.83334491 -.01714629  00000+0 -95676-2 0  9993", "line2": "2 67082  69.9973 215.5858 0003743 276.2441 180.1956 15.82272305  2923"}}, "geometry": {"type": "Point", "coordinates": [33.84887558354602, 2.17283041737657]}}, {"type": "Feature", "properties": {"norad_id": 67083, "name": "STARLINK-36170", "group": "last-30-days", "lat": 0.19841088838968451, "lon": 34.56573127563508, "alt_km": 330.0554573481613, "timestamp": "2025-12-25T03:55:54.956913+00:00", "meta": {"OBJECT_NAME": "STARLINK-36170", "OBJECT_ID": "2025-298J", "EPOCH": "2025-12-24T20:00:01.000224", "MEAN_MOTION": 15.82263733, "ECCENTRICITY": 0.0003816, "INCLINATION": 69.9969, "RA_OF_ASC_NODE": 215.583, "ARG_OF_PERICENTER": 271.6581, "MEAN_ANOMALY": 186.8902, "EPHEMERIS_TYPE": 0, "CLASSIFICATION_TYPE": "U", "NORAD_CAT_ID": 67083, "ELEMENT_SET_NO": 999, "REV_AT_EPOCH": 292, "BSTAR": -0.0095229, "MEAN_MOTION_DOT": -0.01707211, "MEAN_MOTION_DDOT": 0}, "tle": {"line1": "1 67083U 25298J   25358.83334491 -.01707211  00000+0 -95229-2 0  9997", "line2": "2 67083  69.9969 215.5830 0003816 271.6581 186.8902 15.82263733  2923"}}, "geometry": {"type": "Point", "coordinates": [34.56573127563508, 0.19841088838968451]}}, {"type": "Feature", "properties": {"norad_id": 67084, "name": "STARLINK-36166", "group": "last-30-days", "lat": -1.685574092032081, "lon": 35.249762275981595, "alt_km": 330.4369563568471, "timestamp": "2025-12-25T03:55:54.956925+00:00", "meta": {"OBJECT_NAME": "STARLINK-36166", "OBJECT_ID": "2025-298K", "EPOCH": "2025-12-24T20:00:01.000224", "MEAN_MOTION": 15.8226252, "ECCENTRICITY": 0.0003765, "INCLINATION": 69.997, "RA_OF_ASC_NODE": 215.5805, "ARG_OF_PERICENTER": 276.119, "MEAN_ANOMALY": 184.4388, "EPHEMERIS_TYPE": 0, "CLASSIFICATION_TYPE": "U", "NORAD_CAT_ID": 67084, "ELEMENT_SET_NO": 999, "REV_AT_EPOCH": 286, "BSTAR": -0.009575, "MEAN_MOTION_DOT": -0.01715113, "MEAN_MOTION_DDOT": 0}, "tle": {"line1": "1 67084U 25298K   25358.83334491 -.01715113  00000+0 -95750-2 0  9997", "line2": "2 67084  69.9970 215.5805 0003765 276.1190 184.4388 15.82262520  2865"}}, "geometry": {"type": "Point", "coordinates": [35.249762275981595, -1.685574092032081]}}, {"type": "Feature", "properties": {"norad_id": 67085, "name": "STARLINK-35794", "group": "last-30-days", "lat": -3.536999092639273, "lon": 35.92358486930771, "alt_km": 330.32736627335544, "timestamp": "2025-12-25T03:55:54.956936+00:00", "meta": {"OBJECT_NAME": "STARLINK-35794", "OBJECT_ID": "2025-298L", "EPOCH": "2025-12-24T20:00:01.000224", "MEAN_MOTION": 15.82261137, "ECCENTRICITY": 0.0003804, "INCLINATION": 69.9972, "RA_OF_ASC_NODE": 215.5783, "ARG_OF_PERICENTER": 270.5263, "MEAN_ANOMALY": 192.0022, "EPHEMERIS_TYPE": 0, "CLASSIFICATION_TYPE": "U", "NORAD_CAT_ID": 67085, "ELEMENT_SET_NO": 999, "REV_AT_EPOCH": 292, "BSTAR": -0.00955, "MEAN_MOTION_DOT": -0.01711208, "MEAN_MOTION_DDOT": 0}, "tle": {"line1": "1 67085U 25298L   25358.83334491 -.01711208  00000+0 -95500-2 0  9992", "line2": "2 67085  69.9972 215.5783 0003804 270.5263 192.0022 15.82261137  2926"}}, "geometry": {"type": "Point", "coordinates": [35.92358486930771, -3.536999092639273]}}, {"type": "Feature", "properties": {"norad_id": 67086, "name": "STARLINK-35841", "group": "last-30-days", "lat": -5.593064166329558, "lon": 36.67510373823368, "alt_km": 330.6663300084838, "timestamp": "2025-12-25T03:55:54.956946+00:00", "meta": {"OBJECT_NAME": "STARLINK-35841", "OBJECT_ID": "2025-298M", "EPOCH": "2025-12-24T20:00:01.000224", "MEAN_MOTION": 15.82260169, "ECCENTRICITY": 0.0003818, "INCLINATION": 69.9969, "RA_OF_ASC_NODE": 215.5756, "ARG_OF_PERICENTER": 274.0421, "MEAN_ANOMALY": 190.6812, "EPHEMERIS_TYPE": 0, "CLASSIFICATION_TYPE": "U", "NORAD_CAT_ID": 67086, "ELEMENT_SET_NO": 999, "REV_AT_EPOCH": 292, "BSTAR": -0.0096061, "MEAN_MOTION_DOT": -0.01719813, "MEAN_MOTION_DDOT": 0}, "tle": {"line1": "1 67086U 25298M   25358.83334491 -.01719813  00000+0 -96061-2 0  9996", "line2": "2 67086  69.9969 215.5756 0003818 274.0421 190.6812 15.82260169  2928"}}, "geometry": {"type": "Point", "coordinates": [36.67510373823368, -5.593064166329558]}}, {"type": "Feature", "properties": {"norad_id": 67087, "name": "STARLINK-35842", "group": "last-30-days", "lat": -4.480013289185921, "lon": 36.267277604057334, "alt_km": 334.80291378544644, "timestamp": "2025-12-25T03:55:54.956958+00:00", "meta": {"OBJECT_NAME": "STARLINK-35842", "OBJECT_ID": "2025-298N", "EPOCH": "2025-12-24T20:00:01.000224", "MEAN_MOTION": 15.81210836, "ECCENTRICITY": 0.0003605, "INCLINATION": 69.9969, "RA_OF_ASC_NODE": 215.5748, "ARG_OF_PERICENTER": 271.145, "MEAN_ANOMALY": 193.939, "EPHEMERIS_TYPE": 0, "CLASSIFICATION_TYPE": "U", "NORAD_CAT_ID": 67087, "ELEMENT_SET_NO": 999, "REV_AT_EPOCH": 292, "BSTAR": -0.014176, "MEAN_MOTION_DOT": -0.02410559, "MEAN_MOTION_DDOT": 0}, "tle": {"line1": "1 67087U 25298N   25358.83334491 -.02410559  00000+0 -14176-1 0  9999", "line2": "2 67087  69.9969 215.5748 0003605 271.1450 193.9390 15.81210836  2926"}}, "geometry": {"type": "Point", "coordinates": [36.267277604057334, -4.480013289185921]}}, {"type": "Feature", "properties": {"norad_id": 67088, "name": "STARLINK-35882", "group": "last-30-days", "lat": -9.295611942714263, "lon": 38.044332737253825, "alt_km": 330.96122083787395, "timestamp": "2025-12-25T03:55:54.956968+00:00", "meta": {"OBJECT_NAME": "STARLINK-35882", "OBJECT_ID": "2025-298P", "EPOCH": "2025-12-24T20:00:01.000224", "MEAN_MOTION": 15.82251282, "ECCENTRICITY": 0.0003763, "INCLINATION": 69.9972, "RA_OF_ASC_NODE": 215.5709, "ARG_OF_PERICENTER": 274.2622, "MEAN_ANOMALY": 194.4158, "EPHEMERIS_TYPE": 0, "CLASSIFICATION_TYPE": "U", "NORAD_CAT_ID": 67088, "ELEMENT_SET_NO": 999, "REV_AT_EPOCH": 292, "BSTAR": -0.0096034, "MEAN_MOTION_DOT": -0.01718711, "MEAN_MOTION_DDOT": 0}, "tle": {"line1": "1 67088U 25298P   25358.83334491 -.01718711  00000+0 -96034-2 0  9994", "line2": "2 67088  69.9972 215.5709 0003763 274.2622 194.4158 15.82251282  2927"}}, "geometry": {"type": "Point", "coordinates": [38.044332737253825, -9.295611942714263]}}, {"type": "Feature", "properties": {"norad_id": 67089, "name": "STARLINK-35763", "group": "last-30-days", "lat": -11.320127129836218, "lon": 38.80518057506138, "alt_km": 331.06354152323183, "timestamp": "2025-12-25T03:55:54.956978+00:00", "meta": {"OBJECT_NAME": "STARLINK-35763", "OBJECT_ID": "2025-298Q", "EPOCH": "2025-12-24T20:00:01.000224", "MEAN_MOTION": 15.8224352, "ECCENTRICITY": 0.0003844, "INCLINATION": 69.9969, "RA_OF_ASC_NODE": 215.568, "ARG_OF_PERICENTER": 273.5173, "MEAN_ANOMALY": 197.329, "EPHEMERIS_TYPE": 0, "CLASSIFICATION_TYPE": "U", "NORAD_CAT_ID": 67089, "ELEMENT_SET_NO": 999, "REV_AT_EPOCH": 292, "BSTAR": -0.0095876, "MEAN_MOTION_DOT": -0.01715829, "MEAN_MOTION_DDOT": 0}, "tle": {"line1": "1 67089U 25298Q   25358.83334491 -.01715829  00000+0 -95876-2 0  9995", "line2": "2 67089  69.9969 215.5680 0003844 273.5173 197.3290 15.82243520  2920"}}, "geometry": {"type": "Point", "coordinates": [38.80518057506138, -11.320127129836218]}}, {"type": "Feature", "properties": {"norad_id": 67090, "name": "STARLINK-36060", "group": "last-30-days", "lat": -13.063640550590511, "lon": 39.469712621718365, "alt_km": 331.1112558084451, "timestamp": "2025-12-25T03:55:54.956988+00:00", "meta": {"OBJECT_NAME": "STARLINK-36060", "OBJECT_ID": "2025-298R", "EPOCH": "2025-12-24T20:00:01.000224", "MEAN_MOTION": 15.82241608, "ECCENTRICITY": 0.000383, "INCLINATION": 69.9965, "RA_OF_ASC_NODE": 215.5655, "ARG_OF_PERICENTER": 272.2344, "MEAN_ANOMALY": 200.4746, "EPHEMERIS_TYPE": 0, "CLASSIFICATION_TYPE": "U", "NORAD_CAT_ID": 67090, "ELEMENT_SET_NO": 999, "REV_AT_EPOCH": 286, "BSTAR": -0.0095768, "MEAN_MOTION_DOT": -0.01714013, "MEAN_MOTION_DDOT": 0}, "tle": {"line1": "1 67090U 25298R   25358.83334491 -.01714013  00000+0 -95768-2 0  9991", "line2": "2 67090  69.9965 215.5655 0003830 272.2344 200.4746 15.82241608  2861"}}, "geometry": {"type": "Point", "coordinates": [39.469712621718365, -13.063640550590511]}}]}